GLOBALSTAR M001         
1 25162U 98008A   24171.92504493 -.00000074  00000+0  17043-3 0  9991
2 25162  52.0049 307.5980 0001800 179.7308 329.7093 12.38186177198830
GLOBALSTAR M002         
1 25164U 98008C   24171.86261122 -.00000083  00000+0 -11917-3 0  9990
2 25164  52.0027  68.6663 0000756 179.6818 180.4003 11.61502577141961
GLOBALSTAR M003         
1 25165U 98008D   24171.93033080  .00000030  00000+0  12711-2 0  9991
2 25165  51.9885  91.8285 0007602 286.9778 150.8020 12.12011935189292
GLOBALSTAR M006         
1 25307U 98023B   24171.91546228 -.00000122  00000+0 -94347-3 0  9997
2 25307  51.9959  38.3086 0003717 160.6931 307.6285 11.58164424174851
GLOBALSTAR M015         
1 25308U 98023C   24171.92679788 -.00000085  00000+0 -25906-3 0  9990
2 25308  51.9807 120.1465 0012217 151.7933 249.7136 11.48853238152442
GLOBALSTAR M008         
1 25309U 98023D   24171.74470184 -.00000074  00000+0  17647-3 0  9990
2 25309  51.9939 168.8457 0002424 131.6307  39.6525 12.36044531193023
